NORAD_CAT_ID,OBJECT_NAME,OBJECT_TYPE,EPOCH,MEAN_MOTION,ECCENTRICITY,INCLINATION,RA_OF_ASC_NODE,ARG_OF_PERICENTER,MEAN_ANOMALY,BSTAR,MEAN_MOTION_DOT,MEAN_MOTION_DDOT,TLE_LINE0,TLE_LINE1,TLE_LINE2,SEMIMAJOR_AXIS,PERIOD,APOGEE,PERIGEE,DECAYED
51137.0,STARLINK-3180,PAYLOAD,2022-12-28 08:49:30,15.08855629,0.0002957,53.2161,139.4494,41.5473,318.5743,0.00012413,1.688e-05,0.0,0 STARLINK-3180,1 51137U 22005AK  22362.36771762  .00001688  00000-0  12413-3 0  9997,2 51137  53.2161 139.4494 0002957  41.5473 318.5743 15.08855629 52511,6917.833000000001,95.437,541.743,537.6519999999998,0.0
51137.0,STARLINK-3180,PAYLOAD,2022-12-29 10:15:41,15.08834094,0.0002369,53.2165,134.6871,346.4105,13.6823,-5.3884e-05,-1.146e-05,0.0,0 STARLINK-3180,1 51137U 22005AK  22363.42756664 -.00001146  00000-0 -53884-4 0  9998,2 51137  53.2165 134.6871 0002369 346.4105  13.6823 15.08834094 53782,6917.898,95.438,541.4019999999998,538.125,0.0
51137.0,STARLINK-3180,PAYLOAD,2022-12-30 08:31:07,15.08816112,0.0002969,53.2158,130.5289,36.009,324.1101,1.4177e-05,-6.3e-07,0.0,0 STARLINK-3180,1 51137U 22005AK  22364.35494811 -.00000063  00000-0  14177-4 0  9992,2 51137  53.2158 130.5289 0002969  36.0090 324.1101 15.08816112 52816,6917.953,95.439,541.872,537.764,0.0
51137.0,STARLINK-3180,PAYLOAD,2022-12-30 18:03:25,15.08835855,0.0002778,53.2152,128.7438,33.3852,326.7315,0.00029416,4.396e-05,0.0,0 STARLINK-3180,1 51137U 22005AK  22364.75238395  .00004396  00000-0  29416-3 0  9992,2 51137  53.2152 128.7438 0002778  33.3852 326.7315 15.08835855 53988,6917.893,95.438,541.68,537.836,0.0
51137.0,STARLINK-3180,PAYLOAD,2022-12-31 11:32:39,15.08856535,0.0002947,53.2163,125.4749,33.3145,326.8032,0.00071813,0.00011165,0.0,0 STARLINK-3180,1 51137U 22005AK  22365.48101748  .00011165  00000-0  71813-3 0  9994,2 51137  53.2163 125.4749 0002947  33.3145 326.8032 15.08856535 54090,6917.83,95.437,541.734,537.656,0.0
51137.0,STARLINK-3180,PAYLOAD,2022-12-31 17:54:12,15.08864073,0.0003133,53.2158,124.285,18.5906,341.52,0.00057828,8.933e-05,0.0,0 STARLINK-3180,1 51137U 22005AK  22365.74597330  .00008933  00000-0  57828-3 0  9998,2 51137  53.2158 124.2850 0003133  18.5906 341.5200 15.08864073 53021,6917.807,95.436,541.839,537.504,0.0
51137.0,STARLINK-3180,PAYLOAD,2023-01-01 11:23:26,15.08838767,0.0002677,53.216,121.0124,27.4418,332.6715,-0.00022744,-3.907e-05,0.0,0 STARLINK-3180,1 51137U 22005AK  23001.47461554 -.00003907  00000-0 -22744-3 0  9991,2 51137  53.2160 121.0124 0002677  27.4418 332.6715 15.08838767 54240,6917.884,95.438,541.601,537.8969999999998,0.0
51137.0,STARLINK-3180,PAYLOAD,2023-01-01 17:44:59,15.0883423,0.0003173,53.216,119.8252,22.8986,337.2148,2.7517e-05,1.49e-06,0.0,0 STARLINK-3180,1 51137U 22005AK  23001.73957689  .00000149  00000-0  27517-4 0  9996,2 51137  53.2160 119.8252 0003173  22.8986 337.2148 15.08834230 53171,6917.898,95.438,541.9580000000002,537.568,0.0
51137.0,STARLINK-3180,PAYLOAD,2023-01-02 08:03:27,15.08857627,0.0002519,53.2164,117.1458,36.5228,323.5936,0.00097965,0.00015345,0.0,0 STARLINK-3180,1 51137U 22005AK  23002.33573199  .00015345  00000-0  97965-3 0  9990,2 51137  53.2164 117.1458 0002519  36.5228 323.5936 15.08857627 54379,6917.8269999999975,95.436,541.434,537.9490000000002,0.0
51137.0,STARLINK-3180,PAYLOAD,2023-01-02 14:24:59,15.088489,0.0002891,53.2178,115.9585,21.8511,338.2604,0.00057672,8.905e-05,0.0,0 STARLINK-3180,1 51137U 22005AK  23002.60069349  .00008905  00000-0  57672-3 0  9992,2 51137  53.2178 115.9585 0002891  21.8511 338.2604 15.08848900 53307,6917.853,95.437,541.7180000000002,537.7180000000002,0.0
51137.0,STARLINK-3180,PAYLOAD,2023-01-02 17:35:46,15.08845892,0.0002898,53.2174,115.3645,18.7466,341.3633,0.00038167,5.792e-05,0.0,0 STARLINK-3180,1 51137U 22005AK  23002.73317320  .00005792  00000-0  38167-3 0  9990,2 51137  53.2174 115.3645 0002898  18.7466 341.3633 15.08845892 54434,6917.861999999999,95.437,541.732,537.7230000000002,0.0
51137.0,STARLINK-3180,PAYLOAD,2023-01-03 06:18:51,15.08841953,0.0002943,53.2178,112.9838,20.2991,339.8118,0.00019731,2.853e-05,0.0,0 STARLINK-3180,1 51137U 22005AK  23003.26309614  .00002853  00000-0  19731-3 0  9997,2 51137  53.2178 112.9838 0002943  20.2991 339.8118 15.08841953 54510,6917.874,95.437,541.775,537.703,0.0
51137.0,STARLINK-3180,PAYLOAD,2023-01-03 07:54:14,15.08844682,0.0002947,53.2163,112.6869,19.7241,340.3864,0.00030026,4.494e-05,0.0,0 STARLINK-3180,1 51137U 22005AK  23003.32933537  .00004494  00000-0  30026-3 0  9994,2 51137  53.2163 112.6869 0002947  19.7241 340.3864 15.08844682 53415,6917.866,95.437,541.77,537.692,0.0
51137.0,STARLINK-3180,PAYLOAD,2023-01-04 10:55:48,15.08840505,0.0002869,53.2168,107.6335,25.1444,334.9688,0.00021261,3.097e-05,0.0,0 STARLINK-3180,1 51137U 22005AK  23004.45541742  .00003097  00000-0  21261-3 0  9991,2 51137  53.2168 107.6335 0002869  25.1444 334.9688 15.08840505 54695,6917.879,95.438,541.729,537.759,0.0
51137.0,STARLINK-3180,PAYLOAD,2023-01-04 14:06:34,15.08851643,0.0003038999999999,53.2168,107.0389,23.4957,336.6173,0.00058745,9.077e-05,0.0,0 STARLINK-3180,1 51137U 22005AK  23004.58789608  .00009077  00000-0  58745-3 0  9991,2 51137  53.2168 107.0389 0003039  23.4957 336.6173 15.08851643 54714,6917.845,95.437,541.812,537.607,0.0
51137.0,STARLINK-3180,PAYLOAD,2023-01-05 07:35:47,15.08870387,0.0003122,53.2166,103.7671,24.3645,335.7495,0.00085065,0.00013288,0.0,0 STARLINK-3180,1 51137U 22005AK  23005.31652642  .00013288  00000-0  85065-3 0  9994,2 51137  53.2166 103.7671 0003122  24.3645 335.7495 15.08870387 53718,6917.788000000001,95.436,541.812,537.493,0.0
51137.0,STARLINK-3180,PAYLOAD,2023-01-06 05:51:11,15.0883888,0.0003155,53.2168,99.6044,26.3293,333.7859,-0.00044929,-7.433e-05,0.0,0 STARLINK-3180,1 51137U 22005AK  23006.24388152 -.00007433  00000-0 -44929-3 0  9990,2 51137  53.2168  99.6044 0003155  26.3293 333.7859 15.08838880 54966,6917.884,95.438,541.931,537.566,0.0
51137.0,STARLINK-3180,PAYLOAD,2023-01-06 12:12:44,15.08807744,0.0002288,53.2189,98.4106,9.4987,350.6048,-0.00086765,-0.00014059,0.0,0 STARLINK-3180,1 51137U 22005AK  23006.50884873 -.00014059  00000-0 -86765-3 0  9996,2 51137  53.2189  98.4106 0002288   9.4987 350.6048 15.08807744 55002,6917.979,95.44,541.427,538.261,0.0
51137.0,STARLINK-3180,PAYLOAD,2023-01-06 23:20:27,15.08812845,0.0003523999999999,53.2171,96.3338,31.5155,328.6047,0.00029946,4.477e-05,0.0,0 STARLINK-3180,1 51137U 22005AK  23006.97254324  .00004477  00000-0  29946-3 0  9998,2 51137  53.2171  96.3338 0003524  31.5155 328.6047 15.08812845 55073,6917.963000000002,95.439,542.266,537.391,0.0
51137.0,STARLINK-3180,PAYLOAD,2023-01-07 05:42:00,15.08839526,0.0003526,53.2185,95.1453,18.4806,341.6314,0.0014275,0.00022505,0.0,0 STARLINK-3180,1 51137U 22005AK  23007.23750169  .00022505  00000-0  14275-2 0  9996,2 51137  53.2185  95.1453 0003526  18.4806 341.6314 15.08839526 54001,6917.882,95.438,542.186,537.308,0.0
51137.0,STARLINK-3180,PAYLOAD,2023-01-07 12:03:32,15.08852215,0.0003155,53.2188,93.9534,20.4869,339.625,0.0017050999999999,0.00026963,0.0,0 STARLINK-3180,1 51137U 22005AK  23007.50246145  .00026963  00000-0  17051-2 0  9997,2 51137  53.2188  93.9534 0003155  20.4869 339.6250 15.08852215 55153,6917.843000000002,95.437,541.891,537.525,0.0
51137.0,STARLINK-3180,PAYLOAD,2023-01-07 23:11:14,15.08840268,0.0003538,53.2191,91.8733,343.6642,16.4235,0.0010764,0.00016886,0.0,0 STARLINK-3180,1 51137U 22005AK  23007.96614415  .00016886  00000-0  10764-2 0  9993,2 51137  53.2191  91.8733 0003538 343.6642  16.4235 15.08840268 55225,6917.88,95.438,542.192,537.297,0.0
51137.0,STARLINK-3180,PAYLOAD,2023-01-08 11:54:20,15.08839453,0.0003204,53.2199,89.4923,350.6314,9.4618,0.0010307,0.00016154,0.0,0 STARLINK-3180,1 51137U 22005AK  23008.49607227  .00016154  00000-0  10307-2 0  9996,2 51137  53.2199  89.4923 0003204 350.6314   9.4618 15.08839453 55301,6917.882,95.438,541.964,537.531,0.0
51137.0,STARLINK-3180,PAYLOAD,2023-01-08 15:05:06,15.08849494,0.0003229,53.2169,88.8991,12.6148,347.4924,0.00081896,0.00012774,0.0,0 STARLINK-3180,1 51137U 22005AK  23008.62855067  .00012774  00000-0  81896-3 0  9994,2 51137  53.2169  88.8991 0003229  12.6148 347.4924 15.08849494 55326,6917.851,95.437,541.95,537.4830000000002,0.0
51137.0,STARLINK-3180,PAYLOAD,2023-01-09 11:45:07,15.08850505,0.0003273,53.2162,85.03399999999998,17.8406,342.27,0.00049751,7.641e-05,0.0,0 STARLINK-3180,1 51137U 22005AK  23009.48967005  .00007641  00000-0  49751-3 0  9996,2 51137  53.2162  85.0340 0003273  17.8406 342.2700 15.08850505 55453,6917.848000000001,95.437,541.977,537.4490000000002,0.0
51137.0,STARLINK-3180,PAYLOAD,2023-01-09 21:17:26,15.08852317,0.0003304,53.2162,83.2494,9.8005,350.3051,0.00043943,6.715e-05,0.0,0 STARLINK-3180,1 51137U 22005AK  23009.88710776  .00006715  00000-0  43943-3 0  9999,2 51137  53.2162  83.2494 0003304   9.8005 350.3051 15.08852317 54400,6917.843000000002,95.437,541.993,537.422,0.0
51137.0,STARLINK-3180,PAYLOAD,2023-01-10 11:35:54,15.08847258,0.000323,53.2179,80.5735,13.9774,346.1307,0.00015945,2.251e-05,0.0,0 STARLINK-3180,1 51137U 22005AK  23010.48326670  .00002251  00000-0  15945-3 0  9995,2 51137  53.2179  80.5735 0003230  13.9774 346.1307 15.08847258 55601,6917.858,95.437,541.9580000000002,537.489,0.0
51137.0,STARLINK-3180,PAYLOAD,2023-01-11 13:02:03,15.08862344,0.0003403,53.2163,75.8146,13.5668,346.5415,0.00031337,4.705e-05,0.0,0 STARLINK-3180,1 51137U 22005AK  23011.54309447  .00004705  00000-0  31337-3 0  9995,2 51137  53.2163  75.8146 0003403  13.5668 346.5415 15.08862344 54658,6917.812,95.436,542.031,537.323,0.0
51137.0,STARLINK-3180,PAYLOAD,2023-01-11 20:58:59,15.08838983,0.0003203,53.2158,74.3286,18.6401,341.4708,-9.4576e-05,-1.794e-05,0.0,0 STARLINK-3180,1 51137U 22005AK  23011.87430279 -.00001794  00000-0 -94576-4 0  9991,2 51137  53.2158  74.3286 0003203  18.6401 341.4708 15.08838983 54707,6917.883000000002,95.438,541.964,537.533,0.0
